sat06822
1 06822U 72079C   20046.79406253  .00000009  00000-0  13137-3 0  9998
2 06822  95.6495 357.2259 0031031  76.7779 341.8059 12.55539142169634
